[
    {
        "Altitude(m)": 607886.6956557675,
        "Argument of Periapsis(deg)": 0.0,
        "Eccentricity": 0.0,
        "Inclination(deg)": 60.0,
        "Latitude(deg)": 40.99845505011306,
        "Longitude(deg)": -5.027143288436156,
        "Mean Anomaly(deg)": 49.09089999999999,
        "RAAN(deg)": 65.0,
        "Satellite Name": "Test1 289",
        "Satellite Number": 289,
        "Semi-Major Axis(m)": 6980739.136638005,
        "Time(s)": 0
    },
    {
        "Altitude(m)": 607987.6101698674,
        "Argument of Periapsis(deg)": 0.00010418945913296404,
        "Eccentricity": 0.0,
        "Inclination(deg)": 60.0,
        "Latitude(deg)": 41.463546376924384,
        "Longitude(deg)": -4.522917352105522,
        "Mean Anomaly(deg)": 49.71100614546181,
        "RAAN(deg)": 64.99957995086025,
        "Satellite Name": "Test1 289",
        "Satellite Number": 289,
        "Semi-Major Axis(m)": 6980739.136638005,
        "Time(s)": 10
    }
]